SZ-21 MODULE            
1 66515U 25246C   25335.47863340  .00032008  00000+0  36300-3 0  9992
2 66515  41.4763  84.6984 0005590 193.3848 166.6844 15.61671484  2688
SHENZHOU-22             
1 66645U 25272A   25335.24649191  .00020611  00000+0  26566-3 0  9996
2 66645  41.4669  86.4444 0010456 305.4954  54.4908 15.58463389262243
CZ-2F R/B               
1 66646U 25272B   25330.47076975  .00449059  75676-5  29319-3 0  9998
2 66646  41.4431 114.9009 0121079 133.7676 227.3272 16.01945612   217
SOYUZ-MS 28             
1 66664U 25275A   25335.38269144  .00009617  00000+0  18108-3 0  9997
2 66664  51.6310 198.7026 0003646 190.2550 169.8364 15.49224672   683
