CCSDS_OMM_VERS = 2.0
CREATION_DATE  = 
ORIGINATOR     = 

OBJECT_NAME    = SZ-21 MODULE
OBJECT_ID      = 2025-246C
CENTER_NAME    = EARTH
REF_FRAME      = TEME
TIME_SYSTEM    = UTC
MEAN_ELEMENT_THEORY = SGP/SGP4

EPOCH          = 2025-12-01T11:29:13.925760
MEAN_MOTION    = 15.61671484
ECCENTRICITY   = .000559
INCLINATION    = 41.4763
RA_OF_ASC_NODE = 84.6984
ARG_OF_PERICENTER = 193.3848
MEAN_ANOMALY   = 166.6844

EPHEMERIS_TYPE = 0
CLASSIFICATION_TYPE = U
NORAD_CAT_ID   = 66515
ELEMENT_SET_NO = 999
REV_AT_EPOCH   = 268
BSTAR          = .363E-3
MEAN_MOTION_DOT = .32008E-3
MEAN_MOTION_DDOT = 0

CCSDS_OMM_VERS = 2.0
CREATION_DATE  = 
ORIGINATOR     = 

OBJECT_NAME    = SHENZHOU-22
OBJECT_ID      = 2025-272A
CENTER_NAME    = EARTH
REF_FRAME      = TEME
TIME_SYSTEM    = UTC
MEAN_ELEMENT_THEORY = SGP/SGP4

EPOCH          = 2025-12-01T05:54:56.901024
MEAN_MOTION    = 15.58463389
ECCENTRICITY   = .00104562
INCLINATION    = 41.4669
RA_OF_ASC_NODE = 86.4444
ARG_OF_PERICENTER = 305.4954
MEAN_ANOMALY   = 54.4908

EPHEMERIS_TYPE = 0
CLASSIFICATION_TYPE = U
NORAD_CAT_ID   = 66645
ELEMENT_SET_NO = 999
REV_AT_EPOCH   = 26224
BSTAR          = .26566419E-3
MEAN_MOTION_DOT = .20611E-3
MEAN_MOTION_DDOT = 0

CCSDS_OMM_VERS = 2.0
CREATION_DATE  = 
ORIGINATOR     = 

OBJECT_NAME    = CZ-2F R/B
OBJECT_ID      = 2025-272B
CENTER_NAME    = EARTH
REF_FRAME      = TEME
TIME_SYSTEM    = UTC
MEAN_ELEMENT_THEORY = SGP/SGP4

EPOCH          = 2025-11-26T11:17:54.506400
MEAN_MOTION    = 16.01945612
ECCENTRICITY   = .01210796
INCLINATION    = 41.4431
RA_OF_ASC_NODE = 114.9009
ARG_OF_PERICENTER = 133.7676
MEAN_ANOMALY   = 227.3272

EPHEMERIS_TYPE = 0
CLASSIFICATION_TYPE = U
NORAD_CAT_ID   = 66646
ELEMENT_SET_NO = 999
REV_AT_EPOCH   = 21
BSTAR          = .29319366E-3
MEAN_MOTION_DOT = .449059E-2
MEAN_MOTION_DDOT = .7567612E-5

CCSDS_OMM_VERS = 2.0
CREATION_DATE  = 
ORIGINATOR     = 

OBJECT_NAME    = SOYUZ-MS 28
OBJECT_ID      = 2025-275A
CENTER_NAME    = EARTH
REF_FRAME      = TEME
TIME_SYSTEM    = UTC
MEAN_ELEMENT_THEORY = SGP/SGP4

EPOCH          = 2025-12-01T09:11:04.540416
MEAN_MOTION    = 15.49224672
ECCENTRICITY   = .0003646
INCLINATION    = 51.6310
RA_OF_ASC_NODE = 198.7026
ARG_OF_PERICENTER = 190.2550
MEAN_ANOMALY   = 169.8364

EPHEMERIS_TYPE = 0
CLASSIFICATION_TYPE = U
NORAD_CAT_ID   = 66664
ELEMENT_SET_NO = 999
REV_AT_EPOCH   = 68
BSTAR          = .18108E-3
MEAN_MOTION_DOT = .9617E-4
MEAN_MOTION_DDOT = 0

